SPACEMOBILE-006         
1 67232U 25309A   26127.10234653  .00002770  00000+0  14846-3 0  9992
2 67232  52.9950 159.7770 0011348  12.8349 347.2931 15.18338751 20353
